[{"OBJECT_NAME":"STARLINK-6318","OBJECT_ID":"2023-065AD","EPOCH":"2026-03-09T10:15:43.273152","MEAN_MOTION":15.03004751,"ECCENTRICITY":5.141e-5,"INCLINATION":42.9979,"RA_OF_ASC_NODE":185.8718,"ARG_OF_PERICENTER":157.0339,"MEAN_ANOMALY":203.0526,"EPHEMERIS_TYPE":0,"CLASSIFICATION_TYPE":"U","NORAD_CAT_ID":56530,"ELEMENT_SET_NO":999,"REV_AT_EPOCH":15688,"BSTAR":0.0042810329,"MEAN_MOTION_DOT":0.00058843,"MEAN_MOTION_DDOT":0},{"OBJECT_NAME":"SL-8 R\/B","OBJECT_ID":"1968-040B","EPOCH":"2026-03-09T18:37:46.369632","MEAN_MOTION":15.03260494,"ECCENTRICITY":0.00239141,"INCLINATION":74.0322,"RA_OF_ASC_NODE":313.5182,"ARG_OF_PERICENTER":137.361,"MEAN_ANOMALY":222.9441,"EPHEMERIS_TYPE":0,"CLASSIFICATION_TYPE":"U","NORAD_CAT_ID":3230,"ELEMENT_SET_NO":999,"REV_AT_EPOCH":9002,"BSTAR":0.00025747843,"MEAN_MOTION_DOT":3.469e-5,"MEAN_MOTION_DDOT":0}]
